STARLINK-2213           
1 47780U 21017BL  26068.65627556  .00020507  00000+0  70254-3 0  9995
2 47780  53.1589 203.9945 0001113  71.0225 289.0897 15.30203136277894
HAWK-11C                
1 62381U 24247E   26068.51221537  .00009223  00000+0  33290-3 0  9992
2 62381  45.0045 114.8762 0005900 329.7040  30.3502 15.28848020 67743
